{"type": "FeatureCollection", "features": [{"type": "Feature", "properties": {"scalerank": 2, "featurecla": "River", "name": "Brahmaputra", "note": null, "min_zoom": 2.1, "name_alt": null, "name_en": "Brahmaputra", "min_label": 3.1}, "bbox": [89.612649, 23.459395, 95.443766, 28.002916], "geometry": {"type": "MultiLineString", "coordinates": [[[89.739257, 24.330195], [89.713832, 24.135142], [89.707941, 23.962414], [89.744424, 23.858673], [89.867518, 23.720258], [89.993918, 23.621039], [90.074378, 23.573419], [90.266976, 23.459395]], [[89.739257, 24.330195], [89.80871, 24.171807], [89.922915, 24.082096], [90.115668, 23.971147], [90.214111, 23.869086], [90.218142, 23.775939], [90.243929, 23.73465], [90.291368, 23.745269], [90.355446, 23.708682], [90.476266, 23.582979], [90.561635, 23.537091]], [[95.396482, 28.002916], [95.443766, 27.883621], [95.369197, 27.805745], [95.188536, 27.729471], [95.116499, 27.698284], [95.10358, 27.683401], [95.108541, 27.678466], [95.122081, 27.675779], [95.137273, 27.665573], [95.138514, 27.644049], [95.083737, 27.615059], [94.972322, 27.586017], [94.877961, 27.543229], [94.80055, 27.486617], [94.725206, 27.412927], [94.651722, 27.322105], [94.630431, 27.278025], [94.597461, 27.234049], [94.567024, 27.188883], [94.558859, 27.130541], [94.517673, 27.072301], [94.443362, 27.014191], [94.335048, 26.951895], [94.192732, 26.885388], [94.119506, 26.867223], [94.023026, 26.867353], [93.751622, 26.732038], [93.403271, 26.738678], [93.245192, 26.717543], [93.161167, 26.670827], [93.008514, 26.635635], [92.787029, 26.612045], [92.655926, 26.579567], [92.615102, 26.538225], [92.54384, 26.521431], [92.442141, 26.529285], [92.312433, 26.494921], [92.154716, 26.418388], [92.071104, 26.360924], [92.061699, 26.322502], [91.965787, 26.270464], [91.643843, 26.163881], [91.546795, 26.14781], [91.436259, 26.150652], [91.250379, 26.183208], [91.1524, 26.204706], [91.052251, 26.191528], [90.917169, 26.150807], [90.759763, 26.155045], [90.579929, 26.204292], [90.356067, 26.174346], [90.088176, 26.065231], [89.8901, 25.901262], [89.761839, 25.68236], [89.698949, 25.490124], [89.701429, 25.324553], [89.680139, 25.168412], [89.621228, 25.026328], [89.612649, 24.948374], [89.619574, 24.894863], [89.729128, 24.649297], [89.749902, 24.41143], [89.739257, 24.330195]]]}}]}