{"type": "FeatureCollection", "features": [{"type": "Feature", "properties": {"dissolve": "1104River", "scalerank": 9.0, "featurecla": "River", "name": null, "name_alt": null, "rivernum": 1104, "note": null, "min_zoom": 7.1, "name_en": null, "min_label": 8.1}, "bbox": [91.975678, 26.744167, 94.339854, 28.545722], "geometry": {"type": "MultiLineString", "coordinates": [[[93.80421, 26.744167], [93.807709, 26.74433], [93.806407, 26.757351], [93.79892, 26.780382], [93.797862, 26.792548], [93.808116, 26.829617], [93.830333, 26.863227], [93.860932, 26.889675], [93.907725, 26.909247], [93.915619, 26.915717], [93.931082, 26.931505], [93.940033, 26.935858], [93.958018, 26.936957], [93.966807, 26.940456], [93.990733, 26.956326], [94.013764, 26.967963], [94.060069, 26.981147], [94.079194, 26.980821], [94.093354, 26.978298], [94.108165, 26.978583], [94.129405, 26.986762], [94.15919, 27.003852], [94.171316, 27.015652], [94.178803, 27.031317], [94.175955, 27.049628], [94.151541, 27.073676], [94.151947, 27.085395], [94.169851, 27.097764], [94.192393, 27.10578], [94.212413, 27.116319], [94.223155, 27.13642], [94.227957, 27.147569], [94.23585, 27.153632], [94.245046, 27.158311], [94.253429, 27.165717], [94.260265, 27.177598], [94.264252, 27.189521], [94.265717, 27.201931], [94.266124, 27.226752], [94.269054, 27.235053], [94.27532, 27.239773], [94.301199, 27.241563], [94.310964, 27.24726], [94.314952, 27.257432], [94.312511, 27.271918], [94.307709, 27.283962], [94.306407, 27.289862], [94.30657, 27.297227], [94.310313, 27.316189], [94.309093, 27.322618], [94.305105, 27.329779], [94.299327, 27.335517], [94.285818, 27.34516], [94.280203, 27.350409], [94.271251, 27.362006], [94.244721, 27.387519], [94.239675, 27.39586], [94.237885, 27.406562], [94.24464, 27.408962], [94.277192, 27.401435], [94.282481, 27.402208], [94.28769, 27.405585], [94.292898, 27.413886], [94.295421, 27.424994], [94.296153, 27.436591], [94.295665, 27.446357], [94.29241, 27.462348], [94.249766, 27.56505], [94.240815, 27.574652], [94.228526, 27.583075], [94.217296, 27.596869], [94.212332, 27.612616], [94.219005, 27.626654], [94.277599, 27.6789], [94.331147, 27.715115], [94.339854, 27.728705], [94.336355, 27.733832], [94.317882, 27.742011], [94.312104, 27.750027], [94.310313, 27.764431], [94.311615, 27.779079], [94.316417, 27.792751], [94.334565, 27.815253], [94.338634, 27.824001], [94.336192, 27.863349], [94.324636, 27.903754], [94.279796, 27.992865], [94.262218, 28.00788], [94.2553, 28.009548], [94.244233, 28.007392], [94.237641, 28.007839], [94.220714, 28.016628], [94.185151, 28.0633], [94.155365, 28.089138], [94.143565, 28.103705], [94.136729, 28.123155], [94.136241, 28.142442], [94.141368, 28.181912], [94.141694, 28.201361], [94.134858, 28.224962], [94.120697, 28.24372], [94.067556, 28.291327], [94.057384, 28.306505], [94.038829, 28.356024], [94.032481, 28.367987], [94.023204, 28.377224], [94.009044, 28.382758], [93.989268, 28.384385], [93.929617, 28.380072], [93.90919, 28.385606], [93.896495, 28.396552], [93.885509, 28.408759], [93.870128, 28.41824], [93.846121, 28.423122], [93.734467, 28.419989], [93.598562, 28.382188], [93.574311, 28.380439], [93.462901, 28.383816], [93.435639, 28.392646], [93.377208, 28.429145], [93.347097, 28.44241], [93.211925, 28.450141], [93.178396, 28.447781], [93.17335, 28.444525], [93.173839, 28.439276], [93.175792, 28.434272], [93.175141, 28.431464], [93.166433, 28.429877], [93.139171, 28.42947], [93.102061, 28.420681], [93.006114, 28.359809], [92.960704, 28.3487], [92.921479, 28.326361], [92.862315, 28.305976], [92.80071, 28.297227], [92.772878, 28.298122], [92.759288, 28.301947], [92.748546, 28.309882], [92.741628, 28.336127], [92.746349, 28.366278], [92.746593, 28.394151], [92.725515, 28.413682], [92.706472, 28.416205], [92.670095, 28.40766], [92.651785, 28.40644], [92.640147, 28.409491], [92.632823, 28.415107], [92.618256, 28.430976], [92.589122, 28.444037], [92.559825, 28.441026], [92.529714, 28.431586], [92.498627, 28.425564], [92.468028, 28.428168], [92.432384, 28.431912], [92.391775, 28.429755], [92.310151, 28.447821], [92.291026, 28.447821], [92.253184, 28.440863], [92.233979, 28.440863], [92.212901, 28.448554], [92.1963, 28.462104], [92.166108, 28.494656], [92.146414, 28.508124], [92.052745, 28.539008], [92.027843, 28.544257], [92.002208, 28.545722], [91.975678, 28.541693]]]}}, {"type": "Feature", "properties": {"dissolve": "1138Lake Centerline", "scalerank": 9.0, "featurecla": "Lake Centerline", "name": "Balak", "name_alt": null, "rivernum": 1138, "note": null, "min_zoom": 7.1, "name_en": "Balak", "min_label": 8.1}, "bbox": [90.976492, 24.007514, 91.16505, 24.355251], "geometry": {"type": "MultiLineString", "coordinates": [[[91.164561, 24.355251], [91.160818, 24.349229], [91.160085, 24.332139], [91.163992, 24.313666], [91.16505, 24.299872], [91.162527, 24.284044], [91.156261, 24.270087], [91.142833, 24.257636], [91.119151, 24.252712], [91.093761, 24.259711], [91.080658, 24.252712], [91.076101, 24.235297], [91.073171, 24.229112], [91.067312, 24.224799], [91.0595, 24.216742], [91.042084, 24.196845], [91.012218, 24.17475], [90.999766, 24.162218], [90.998139, 24.15351], [91.001882, 24.144721], [91.014252, 24.131537], [91.030691, 24.114447], [91.035737, 24.105821], [91.040945, 24.093451], [91.04184, 24.082628], [91.039236, 24.072537], [91.033376, 24.063015], [91.008718, 24.040066], [90.999766, 24.034044], [90.98642, 24.014716], [90.985037, 24.01435], [90.976492, 24.007514]]]}}, {"type": "Feature", "properties": {"dissolve": "1138River", "scalerank": 9.0, "featurecla": "River", "name": "Balak", "name_alt": null, "rivernum": 1138, "note": null, "min_zoom": 7.1, "name_en": "Balak", "min_label": 8.1}, "bbox": [90.63323, 23.55504, 94.258718, 25.482367], "geometry": {"type": "MultiLineString", "coordinates": [[[94.258718, 25.461208], [94.236095, 25.461534], [94.223399, 25.453925], [94.214773, 25.442979], [94.204112, 25.433214], [94.169444, 25.419623], [94.163015, 25.412665], [94.15683, 25.40351], [94.149425, 25.395616], [94.138927, 25.392279], [94.120209, 25.388495], [94.108653, 25.377794], [94.102631, 25.361599], [94.101085, 25.341091], [94.063975, 25.304145], [94.053233, 25.296088], [94.057872, 25.32331], [94.066824, 25.349473], [94.072276, 25.37462], [94.066905, 25.398505], [94.053396, 25.409003], [94.029714, 25.418809], [94.003835, 25.423692], [93.984386, 25.419623], [93.949718, 25.443671], [93.921397, 25.46955], [93.888682, 25.482367], [93.841075, 25.467353], [93.808604, 25.446153], [93.723643, 25.364081], [93.698741, 25.347195], [93.679128, 25.328315], [93.679617, 25.324042], [93.67921, 25.314399], [93.649099, 25.26199], [93.612722, 25.215684], [93.600841, 25.18891], [93.584565, 25.178534], [93.546804, 25.165717], [93.517996, 25.150662], [93.496104, 25.128241], [93.482026, 25.099677], [93.477306, 25.066433], [93.473888, 25.054511], [93.449962, 25.014919], [93.42921, 24.970404], [93.410085, 24.944403], [93.40504, 24.931423], [93.402761, 24.917426], [93.402192, 24.901923], [93.411632, 24.846706], [93.409679, 24.830593], [93.399099, 24.81977], [93.385265, 24.817694], [93.37322, 24.814276], [93.368093, 24.799587], [93.367198, 24.783718], [93.363455, 24.766954], [93.355235, 24.757107], [93.34075, 24.761664], [93.334402, 24.737901], [93.333263, 24.716905], [93.330577, 24.707099], [93.324474, 24.699734], [93.313406, 24.693427], [93.31129, 24.696804], [93.311046, 24.697699], [93.306651, 24.700222], [93.302419, 24.687079], [93.294526, 24.675849], [93.282481, 24.66828], [93.265636, 24.666083], [93.24822, 24.671983], [93.23935, 24.683783], [93.231619, 24.697048], [93.217784, 24.707058], [93.219005, 24.69599], [93.230886, 24.666083], [93.220795, 24.659044], [93.218191, 24.650946], [93.221772, 24.6435], [93.230886, 24.63878], [93.220795, 24.629177], [93.218191, 24.617255], [93.217784, 24.590359], [93.212494, 24.575263], [93.204275, 24.561103], [93.186534, 24.538845], [93.177664, 24.524359], [93.168875, 24.474311], [93.151296, 24.427843], [93.148204, 24.410509], [93.146007, 24.404161], [93.138601, 24.389512], [93.03655, 24.259223], [93.024913, 24.234687], [93.018565, 24.234687], [93.013194, 24.26203], [93.014171, 24.274482], [93.018565, 24.288682], [93.026134, 24.300076], [93.042735, 24.315253], [93.045909, 24.326606], [93.041515, 24.340888], [93.022878, 24.354315], [93.018565, 24.367499], [93.021983, 24.390204], [93.020518, 24.400214], [93.011729, 24.412869], [93.036632, 24.414659], [93.045665, 24.444607], [93.052745, 24.522732], [93.064464, 24.558946], [93.07366, 24.567247], [93.090587, 24.569892], [93.100597, 24.577094], [93.095714, 24.593695], [93.080089, 24.624538], [93.09905, 24.654405], [93.106212, 24.671983], [93.097341, 24.679755], [93.091075, 24.682725], [93.087983, 24.690294], [93.086925, 24.710476], [93.083588, 24.71837], [93.075857, 24.721625], [93.066987, 24.723456], [93.059581, 24.726915], [93.035574, 24.780341], [93.028575, 24.789618], [92.987641, 24.789618], [92.975678, 24.791775], [92.966563, 24.796413], [92.956554, 24.80329], [92.928966, 24.792344], [92.910818, 24.74254], [92.888194, 24.734402], [92.888194, 24.741156], [92.896007, 24.742011], [92.899994, 24.743842], [92.903331, 24.746161], [92.908702, 24.748643], [92.896902, 24.753241], [92.867686, 24.76911], [92.865896, 24.760362], [92.863292, 24.755886], [92.854096, 24.748643], [92.844493, 24.754218], [92.842865, 24.760199], [92.843435, 24.767035], [92.840424, 24.775336], [92.834565, 24.779608], [92.828136, 24.781602], [92.822765, 24.784857], [92.820567, 24.79267], [92.827891, 24.794298], [92.859955, 24.815212], [92.867686, 24.816921], [92.85849, 24.830878], [92.827403, 24.824164], [92.820567, 24.833686], [92.814464, 24.835069], [92.800955, 24.841864], [92.786876, 24.852159], [92.778901, 24.864081], [92.759288, 24.864366], [92.747081, 24.886257], [92.733653, 24.900458], [92.710704, 24.877753], [92.716238, 24.873603], [92.72047, 24.869737], [92.724864, 24.866482], [92.731212, 24.864081], [92.731212, 24.857856], [92.71339, 24.863634], [92.698741, 24.86225], [92.691905, 24.853339], [92.697195, 24.836778], [92.686534, 24.836697], [92.667491, 24.831814], [92.658946, 24.830593], [92.646576, 24.83279], [92.643891, 24.83747], [92.646007, 24.842068], [92.648692, 24.843573], [92.647472, 24.847439], [92.648692, 24.852118], [92.649018, 24.856228], [92.645274, 24.857856], [92.634044, 24.85753], [92.628917, 24.858344], [92.624522, 24.860948], [92.616791, 24.867377], [92.608653, 24.872382], [92.600597, 24.875922], [92.593435, 24.877753], [92.583751, 24.87755], [92.565929, 24.872748], [92.518565, 24.870429], [92.493907, 24.865424], [92.477468, 24.864081], [92.49114, 24.883897], [92.494151, 24.895087], [92.490896, 24.912543], [92.483409, 24.928494], [92.474132, 24.936835], [92.449311, 24.946641], [92.457612, 24.953477], [92.453705, 24.958319], [92.444265, 24.962592], [92.41212, 24.98432], [92.411876, 24.987616], [92.39446, 24.993476], [92.379649, 25.004462], [92.362804, 25.010565], [92.339447, 25.001899], [92.307628, 25.026923], [92.276866, 25.003852], [92.250255, 24.971259], [92.230235, 24.967719], [92.22047, 24.948676], [92.208507, 24.945502], [92.194428, 24.945624], [92.179128, 24.936713], [92.168224, 24.927191], [92.12794, 24.905056], [92.113292, 24.894151], [92.107432, 24.892035], [92.095876, 24.893337], [92.088308, 24.898708], [92.080577, 24.901638], [92.062266, 24.891303], [92.038585, 24.885199], [92.031993, 24.879584], [92.0206, 24.866563], [92.014578, 24.864081], [91.97226, 24.862576], [91.955984, 24.864081], [91.954194, 24.863715], [91.929291, 24.864081], [91.907807, 24.870429], [91.89796, 24.871527], [91.863455, 24.881863], [91.824229, 24.899604], [91.790131, 24.904853], [91.771576, 24.877753], [91.766531, 24.892035], [91.760671, 24.897284], [91.753347, 24.899522], [91.743663, 24.905056], [91.728038, 24.918036], [91.717784, 24.923774], [91.706472, 24.926134], [91.703136, 24.931993], [91.702729, 24.970811], [91.69866, 24.980536], [91.688731, 24.987006], [91.668549, 24.995063], [91.675304, 24.99433], [91.696544, 24.995063], [91.690684, 25.003363], [91.680268, 25.015245], [91.675955, 25.022325], [91.688975, 25.022325], [91.688975, 25.028591], [91.665131, 25.033311], [91.641368, 25.018378], [91.617442, 25.00849], [91.592865, 25.028591], [91.582937, 25.022528], [91.575125, 25.026435], [91.569591, 25.036811], [91.566173, 25.05032], [91.552419, 25.042833], [91.548106, 25.054877], [91.528901, 25.056952], [91.524506, 25.066433], [91.521414, 25.078437], [91.513601, 25.082709], [91.503429, 25.080593], [91.493907, 25.073269], [91.47934, 25.064968], [91.470307, 25.07213], [91.463145, 25.091254], [91.450857, 25.094753], [91.439382, 25.094102], [91.427419, 25.090196], [91.414643, 25.083808], [91.399506, 25.069281], [91.382823, 25.046007], [91.371104, 25.024441], [91.370616, 25.014919], [91.371349, 25.010199], [91.389903, 24.990546], [91.394216, 24.987616], [91.395925, 24.973334], [91.394542, 24.96072], [91.389578, 24.954657], [91.380626, 24.960273], [91.374441, 24.960273], [91.353608, 24.917426], [91.348888, 24.8935], [91.353282, 24.871527], [91.370942, 24.849799], [91.379405, 24.836493], [91.377452, 24.830593], [91.371755, 24.824164], [91.363373, 24.810085], [91.358653, 24.796007], [91.363455, 24.789618], [91.388927, 24.767157], [91.379242, 24.718207], [91.347097, 24.670478], [91.304779, 24.651801], [91.308116, 24.634223], [91.302419, 24.614081], [91.29127, 24.600898], [91.27825, 24.604031], [91.270274, 24.593533], [91.26116, 24.587104], [91.251882, 24.582139], [91.243337, 24.576117], [91.237397, 24.569281], [91.207449, 24.512803], [91.1963, 24.498887], [91.181895, 24.487901], [91.181895, 24.501573], [91.174571, 24.501573], [91.160818, 24.480496], [91.168468, 24.476182], [91.188731, 24.460639], [91.173839, 24.455268], [91.179779, 24.449897], [91.193614, 24.444648], [91.202403, 24.439521], [91.20224, 24.42239], [91.192149, 24.410468], [91.178722, 24.40119], [91.168956, 24.39171], [91.161062, 24.376776], [91.159434, 24.368232], [91.164968, 24.364447], [91.170909, 24.363552], [91.171804, 24.361355], [91.169037, 24.358344], [91.164561, 24.355251]], [[90.976492, 24.007514], [90.967052, 23.994208], [90.952647, 23.983995], [90.936453, 23.976426], [90.912364, 23.969184], [90.865733, 23.965522], [90.85906, 23.963894], [90.852061, 23.960801], [90.846934, 23.956326], [90.843761, 23.950263], [90.842784, 23.942735], [90.844005, 23.935411], [90.855968, 23.891425], [90.85434, 23.884711], [90.84962, 23.880194], [90.843272, 23.876532], [90.836436, 23.873806], [90.830089, 23.871934], [90.822683, 23.870917], [90.792003, 23.872138], [90.784923, 23.871121], [90.778331, 23.86872], [90.771576, 23.864691], [90.765391, 23.859565], [90.759776, 23.853461], [90.75587, 23.846503], [90.7553, 23.838406], [90.760753, 23.816718], [90.76116, 23.808865], [90.759695, 23.801947], [90.739024, 23.752631], [90.723399, 23.73074], [90.721202, 23.721869], [90.724864, 23.715399], [90.739268, 23.706081], [90.744884, 23.701361], [90.749278, 23.695095], [90.751475, 23.687934], [90.750906, 23.680691], [90.743093, 23.667263], [90.730479, 23.656602], [90.715343, 23.65001], [90.699799, 23.648708], [90.683604, 23.651394], [90.675385, 23.653998], [90.668875, 23.657904], [90.662608, 23.663153], [90.655935, 23.667589], [90.649343, 23.668158], [90.643077, 23.661689], [90.641368, 23.647528], [90.650971, 23.619412], [90.647472, 23.605984], [90.64446, 23.602891], [90.64088, 23.60045], [90.63323, 23.596625]], [[90.734304, 23.659288], [90.760916, 23.634101], [90.769623, 23.622829], [90.767345, 23.617743], [90.751882, 23.61579], [90.740245, 23.610297], [90.735932, 23.601671], [90.743175, 23.590399], [90.733165, 23.580024], [90.710948, 23.567084], [90.702159, 23.55504]]]}}, {"type": "Feature", "properties": {"dissolve": "454River", "scalerank": 7.0, "featurecla": "River", "name": "Chindwin", "name_alt": null, "rivernum": 454, "note": null, "min_zoom": 6.0, "name_en": "Chindwin", "min_label": 7.0}, "bbox": [94.30714, 21.444688, 97.061697, 26.647244], "geometry": {"type": "MultiLineString", "coordinates": [[[96.903412, 25.631903], [96.897227, 25.669745], [96.894054, 25.674506], [96.886974, 25.682196], [96.879975, 25.692206], [96.876882, 25.704169], [96.879975, 25.713324], [96.894054, 25.72309], [96.897227, 25.731513], [96.898204, 25.795966], [96.901459, 25.81448], [96.907807, 25.83161], [96.917735, 25.85163], [96.955089, 25.928656], [96.971609, 25.935492], [96.97934, 25.940375], [96.987071, 25.950548], [96.999766, 25.981309], [97.0171, 26.011664], [97.020274, 26.028876], [97.013276, 26.050238], [97.027192, 26.062527], [97.034679, 26.074001], [97.056733, 26.125841], [97.060802, 26.140245], [97.061697, 26.177191], [97.053233, 26.191352], [97.014252, 26.22781], [96.993256, 26.24079], [96.95753, 26.293077], [96.952729, 26.297919], [96.945079, 26.303494], [96.940033, 26.304633], [96.921153, 26.303494], [96.915538, 26.305528], [96.913097, 26.310004], [96.91212, 26.314643], [96.910818, 26.317165], [96.857921, 26.329657], [96.848888, 26.334499], [96.844737, 26.345811], [96.834239, 26.36046], [96.819916, 26.373155], [96.804454, 26.378526], [96.793549, 26.375067], [96.783214, 26.368476], [96.773204, 26.364447], [96.763194, 26.368598], [96.744884, 26.384141], [96.739024, 26.392849], [96.732839, 26.384548], [96.722179, 26.377631], [96.709727, 26.373236], [96.69866, 26.372382], [96.685639, 26.37698], [96.672455, 26.390082], [96.661143, 26.392849], [96.634939, 26.392849], [96.62379, 26.395779], [96.602061, 26.41059], [96.580007, 26.414496], [96.56837, 26.419501], [96.541433, 26.449815], [96.515636, 26.48725], [96.486908, 26.509833], [96.451671, 26.495876], [96.443858, 26.50613], [96.435313, 26.50963], [96.414073, 26.508897], [96.403819, 26.51203], [96.406342, 26.519884], [96.413503, 26.529975], [96.417491, 26.539984], [96.413829, 26.550605], [96.404796, 26.550401], [96.393565, 26.545966], [96.383311, 26.543647], [96.367686, 26.545681], [96.361095, 26.548367], [96.340587, 26.575059], [96.338145, 26.581244], [96.33489, 26.584011], [96.324718, 26.584662], [96.297862, 26.581], [96.285655, 26.583441], [96.290538, 26.594835], [96.303233, 26.617499], [96.300792, 26.637397], [96.28712, 26.647244], [96.266043, 26.639228], [96.271495, 26.633734], [96.280284, 26.61876], [96.263194, 26.61461], [96.258393, 26.600369], [96.250906, 26.588406], [96.225678, 26.591417], [96.247569, 26.540107], [96.254649, 26.511827], [96.246104, 26.482204], [96.244151, 26.487372], [96.242117, 26.490587], [96.240489, 26.494656], [96.239268, 26.502061], [96.231944, 26.502061], [96.231456, 26.420356], [96.223643, 26.381619], [96.2046, 26.35871], [96.193614, 26.357367], [96.167979, 26.360785], [96.157319, 26.35871], [96.151134, 26.351833], [96.144216, 26.340033], [96.141612, 26.328925], [96.147065, 26.32392], [96.156749, 26.320746], [96.174734, 26.306667], [96.18629, 26.300482], [96.178233, 26.293769], [96.157319, 26.282986], [96.130056, 26.279975], [96.091401, 26.290391], [96.061697, 26.275499], [96.051768, 26.276394], [96.043956, 26.275255], [96.040619, 26.265652], [96.039073, 26.255886], [96.020274, 26.212348], [96.008718, 26.194607], [95.993337, 26.179877], [95.954112, 26.164903], [95.938569, 26.144558], [95.917247, 26.104844], [95.909923, 26.099473], [95.900076, 26.094102], [95.890554, 26.087226], [95.883067, 26.076931], [95.881358, 26.064643], [95.884044, 26.037177], [95.879649, 26.025987], [95.861746, 26.015082], [95.839936, 26.013739], [95.821869, 26.023749], [95.807872, 26.068712], [95.793224, 26.058702], [95.774913, 26.036648], [95.758881, 26.022284], [95.745616, 26.022813], [95.732026, 26.02794], [95.719249, 26.031114], [95.707612, 26.025987], [95.704031, 26.016059], [95.709483, 25.995063], [95.704194, 25.981309], [95.68629, 26.012234], [95.675222, 26.020453], [95.656505, 26.015448], [95.6421, 26.000352], [95.639252, 25.983222], [95.639903, 25.966742], [95.635916, 25.954047], [95.62322, 25.947618], [95.609874, 25.94831], [95.597667, 25.946723], [95.588878, 25.933539], [95.588796, 25.924018], [95.594005, 25.902777], [95.595714, 25.899441], [95.59075, 25.893622], [95.574636, 25.885199], [95.5678, 25.878933], [95.581065, 25.868964], [95.577891, 25.852607], [95.563731, 25.837266], [95.538015, 25.82864], [95.529877, 25.823513], [95.522878, 25.815985], [95.52003, 25.806912], [95.519054, 25.792019], [95.516124, 25.785224], [95.445079, 25.746446], [95.437429, 25.731513], [95.432709, 25.710639], [95.423269, 25.696234], [95.415701, 25.681464], [95.417003, 25.659206], [95.422781, 25.648627], [95.440115, 25.629421], [95.444835, 25.618232], [95.443858, 25.607733], [95.433686, 25.597113], [95.424897, 25.563666], [95.423839, 25.553046], [95.420828, 25.544013], [95.413585, 25.540961], [95.404796, 25.53974], [95.396495, 25.536322], [95.382498, 25.525499], [95.383067, 25.521348], [95.382823, 25.464301], [95.377045, 25.424994], [95.370372, 25.402045], [95.361501, 25.385443], [95.345714, 25.377061], [95.297374, 25.362616], [95.287201, 25.354763], [95.287039, 25.334581], [95.283783, 25.322292], [95.273448, 25.313422], [95.223399, 25.287706], [95.217703, 25.283026], [95.20045, 25.253607], [95.200694, 25.248318], [95.152843, 25.258653], [95.135753, 25.255154], [95.121104, 25.243964], [95.112315, 25.232611], [95.100515, 25.223904], [95.077403, 25.220323], [95.073741, 25.215766], [95.06837, 25.19245], [95.065929, 25.169135], [95.062266, 25.160102], [95.050792, 25.140448], [95.043224, 25.135443], [95.04005, 25.131619], [95.039806, 25.125515], [95.042572, 25.118964], [95.047537, 25.111151], [95.042979, 25.101915], [95.037039, 25.093085], [95.030203, 25.086371], [94.999034, 25.077338], [94.987071, 25.060858], [94.976329, 24.988064], [94.971934, 24.981391], [94.948985, 24.985541], [94.934011, 24.965155], [94.921641, 24.939032], [94.906749, 24.926134], [94.896983, 24.922878], [94.882091, 24.908311], [94.861257, 24.900824], [94.863373, 24.891628], [94.871104, 24.88227], [94.875662, 24.877753], [94.915945, 24.859565], [94.935964, 24.844346], [94.934093, 24.82685], [94.924327, 24.817979], [94.915538, 24.812934], [94.905935, 24.810614], [94.893077, 24.810085], [94.878835, 24.806342], [94.877208, 24.797227], [94.878998, 24.785956], [94.875662, 24.775336], [94.845632, 24.759385], [94.765717, 24.74254], [94.738455, 24.726915], [94.717052, 24.692939], [94.697683, 24.649522], [94.685069, 24.605496], [94.683849, 24.569892], [94.691335, 24.553046], [94.703054, 24.543647], [94.717214, 24.535509], [94.732351, 24.522732], [94.718028, 24.512966], [94.723399, 24.495469], [94.732351, 24.475165], [94.728608, 24.456895], [94.708751, 24.432196], [94.715017, 24.424628], [94.736095, 24.423692], [94.760265, 24.419053], [94.7671, 24.413113], [94.792735, 24.362413], [94.800304, 24.351833], [94.811046, 24.340522], [94.822683, 24.325263], [94.827159, 24.307563], [94.822765, 24.289984], [94.807384, 24.27501], [94.785574, 24.269802], [94.733979, 24.271796], [94.714366, 24.265082], [94.699311, 24.254259], [94.692882, 24.246934], [94.690033, 24.23782], [94.69752, 24.193142], [94.686046, 24.176296], [94.664806, 24.159247], [94.644542, 24.151435], [94.635509, 24.162136], [94.625987, 24.180365], [94.606619, 24.183621], [94.591401, 24.171698], [94.594493, 24.144721], [94.599539, 24.139187], [94.605968, 24.135199], [94.611746, 24.129218], [94.615001, 24.117377], [94.61321, 24.11046], [94.603526, 24.097602], [94.601329, 24.086371], [94.606944, 24.066433], [94.604747, 24.058905], [94.591075, 24.055976], [94.582123, 24.051866], [94.558686, 24.033271], [94.553396, 24.028022], [94.56129, 24.001899], [94.624115, 23.961005], [94.622488, 23.933051], [94.609955, 23.921454], [94.593272, 23.912665], [94.573009, 23.907091], [94.540457, 23.903591], [94.528575, 23.899604], [94.5171, 23.89411], [94.508881, 23.888048], [94.506358, 23.877021], [94.514252, 23.866156], [94.532481, 23.850531], [94.541921, 23.838324], [94.542735, 23.832465], [94.539968, 23.823188], [94.532237, 23.814724], [94.510265, 23.802843], [94.505789, 23.798651], [94.496755, 23.788357], [94.444347, 23.746853], [94.433849, 23.735378], [94.42628, 23.7237], [94.421397, 23.711941], [94.418712, 23.699897], [94.418549, 23.673651], [94.428152, 23.617296], [94.430593, 23.562364], [94.428396, 23.54328], [94.421397, 23.526882], [94.406505, 23.511013], [94.390066, 23.499376], [94.384369, 23.492987], [94.382335, 23.48371], [94.378184, 23.476752], [94.357026, 23.471625], [94.348074, 23.466905], [94.337983, 23.451931], [94.328298, 23.430854], [94.321869, 23.408881], [94.320811, 23.391181], [94.323741, 23.385077], [94.341319, 23.357042], [94.342377, 23.345649], [94.340017, 23.337104], [94.344493, 23.331651], [94.365489, 23.329698], [94.369721, 23.313788], [94.30714, 23.212429], [94.33546, 23.193915], [94.347341, 23.114814], [94.365489, 23.096991], [94.384207, 23.091864], [94.405691, 23.079291], [94.424897, 23.063503], [94.436697, 23.048611], [94.440847, 23.029079], [94.433686, 23.01203], [94.418224, 22.997748], [94.396495, 22.986518], [94.392589, 22.99079], [94.384939, 22.997016], [94.376069, 23.00141], [94.368582, 23.000108], [94.362641, 22.988959], [94.365652, 22.978542], [94.384776, 22.948025], [94.406749, 22.943183], [94.451182, 22.945502], [94.474539, 22.944159], [94.496349, 22.937283], [94.512462, 22.923407], [94.518891, 22.90119], [94.528087, 22.888373], [94.550141, 22.884589], [94.575206, 22.88642], [94.594493, 22.890245], [94.599539, 22.893093], [94.609304, 22.901557], [94.615001, 22.904568], [94.619884, 22.905056], [94.630626, 22.903876], [94.654877, 22.90766], [94.660655, 22.9112], [94.662852, 22.921658], [94.662608, 22.948106], [94.665701, 22.96955], [94.677989, 22.983222], [94.705007, 22.986518], [94.728038, 22.980048], [94.740245, 22.966254], [94.74464, 22.946316], [94.745372, 22.921658], [94.743582, 22.916042], [94.740001, 22.911689], [94.738292, 22.907253], [94.741954, 22.90119], [94.758067, 22.885769], [94.760265, 22.880683], [94.759369, 22.867703], [94.756602, 22.858222], [94.751964, 22.850653], [94.745372, 22.843126], [94.703217, 22.810818], [94.690033, 22.794704], [94.728608, 22.726426], [94.747162, 22.723741], [94.764171, 22.715399], [94.776296, 22.700629], [94.78004, 22.678656], [94.765554, 22.643175], [94.760671, 22.620551], [94.778738, 22.600369], [94.807384, 22.541449], [94.81308, 22.495185], [94.819428, 22.470323], [94.831391, 22.45954], [94.846202, 22.455675], [94.903575, 22.42475], [94.910167, 22.417914], [94.914073, 22.40998], [94.919688, 22.402533], [94.930186, 22.396837], [94.975597, 22.396837], [94.982188, 22.393622], [94.987641, 22.38581], [94.990896, 22.375922], [94.99464, 22.352078], [95.00058, 22.34394], [95.019623, 22.329169], [95.030365, 22.310736], [95.040538, 22.268378], [95.050792, 22.250067], [95.064952, 22.231472], [95.071544, 22.216091], [95.081147, 22.178331], [95.119233, 22.110785], [95.135183, 22.07335], [95.135753, 22.027533], [95.130382, 21.990058], [95.128917, 21.948432], [95.130626, 21.925971], [95.146902, 21.839626], [95.152192, 21.82331], [95.160492, 21.810411], [95.188975, 21.780382], [95.206716, 21.745876], [95.217703, 21.733344], [95.234386, 21.721259], [95.242605, 21.711941], [95.245372, 21.698676], [95.245616, 21.674669], [95.249929, 21.654405], [95.268565, 21.622138], [95.27296, 21.599229], [95.270763, 21.579047], [95.261322, 21.546983], [95.259288, 21.526679], [95.27296, 21.444688]]]}}, {"type": "Feature", "properties": {"dissolve": "485River", "scalerank": 7.0, "featurecla": "River", "name": "Mamas", "name_alt": null, "rivernum": 485, "note": null, "min_zoom": 6.0, "name_en": "Mamas", "min_label": 7.0}, "bbox": [90.648692, 26.192979, 91.829112, 28.291856], "geometry": {"type": "MultiLineString", "coordinates": [[[91.776541, 28.291856], [91.77589, 28.097724], [91.777761, 28.08393], [91.791515, 28.043321], [91.796886, 28.013454], [91.802257, 27.999294], [91.808116, 27.991075], [91.820811, 27.97663], [91.825776, 27.968207], [91.828298, 27.959093], [91.829112, 27.94953], [91.828136, 27.939805], [91.819916, 27.910224], [91.811453, 27.890489], [91.800222, 27.872016], [91.786713, 27.855658], [91.758393, 27.821601], [91.74822, 27.802273], [91.741303, 27.779853], [91.741954, 27.761298], [91.753184, 27.726182], [91.751231, 27.708116], [91.747488, 27.701728], [91.737315, 27.690375], [91.732921, 27.684353], [91.729991, 27.677069], [91.725027, 27.654324], [91.6963, 27.592597], [91.690929, 27.568061], [91.685313, 27.515815], [91.673432, 27.495632], [91.658376, 27.485175], [91.624766, 27.469997], [91.609304, 27.460313], [91.579519, 27.433214], [91.566987, 27.417304], [91.558116, 27.399441], [91.556651, 27.389919], [91.558523, 27.3699], [91.557221, 27.358954], [91.529226, 27.321804], [91.430756, 27.276882], [91.391775, 27.243028], [91.384695, 27.22602], [91.381928, 27.174994], [91.377045, 27.15294], [91.368907, 27.12877], [91.358002, 27.105984], [91.3449, 27.087755], [91.32545, 27.073432], [91.257742, 27.046332], [91.236827, 27.031317], [91.219656, 27.012641], [91.192312, 26.969346], [91.172862, 26.905707], [91.162364, 26.890448], [91.14503, 26.883979], [91.025401, 26.879096], [90.97462, 26.866482], [90.945242, 26.838324], [90.95753, 26.787543], [90.955089, 26.785509], [90.952403, 26.784125], [90.946218, 26.782335], [90.936697, 26.778347], [90.930431, 26.771755], [90.919932, 26.754218], [90.908132, 26.728135], [90.907319, 26.704901], [90.91505, 26.653876], [90.910818, 26.639919], [90.889659, 26.609727], [90.881847, 26.594509], [90.859467, 26.51203], [90.853119, 26.501166], [90.846202, 26.492458], [90.84075, 26.482733], [90.838634, 26.469102], [90.841401, 26.458604], [90.853282, 26.439154], [90.856375, 26.429714], [90.856456, 26.41946], [90.854584, 26.417792], [90.84962, 26.416856], [90.840017, 26.408515], [90.822765, 26.385199], [90.809255, 26.360541], [90.803315, 26.339952], [90.799083, 26.331081], [90.789806, 26.32392], [90.776541, 26.320746], [90.750255, 26.318712], [90.739675, 26.311713], [90.733897, 26.299628], [90.730561, 26.274726], [90.722667, 26.263983], [90.712332, 26.258653], [90.677257, 26.251288], [90.667898, 26.247829], [90.660574, 26.243109], [90.655772, 26.236192], [90.653575, 26.226508], [90.655528, 26.20779], [90.654714, 26.19892], [90.648692, 26.192979]]]}}, {"type": "Feature", "properties": {"dissolve": "51River", "scalerank": 2.0, "featurecla": "River", "name": "Brahmaputra", "name_alt": null, "rivernum": 51, "note": null, "min_zoom": 2.1, "name_en": "Brahmaputra", "min_label": 3.1}, "bbox": [89.612722, 23.461982, 95.47169, 28.002956], "geometry": {"type": "MultiLineString", "coordinates": [[[95.396495, 28.002956], [95.401541, 27.971991], [95.418956, 27.941718], [95.441335, 27.915554], [95.461518, 27.896796], [95.47169, 27.871365], [95.459483, 27.843858], [95.437266, 27.824815], [95.417003, 27.824774], [95.403331, 27.809353], [95.38323, 27.793809], [95.360281, 27.781806], [95.33839, 27.776964], [95.330333, 27.772406], [95.293468, 27.742784], [95.254405, 27.730333], [95.217703, 27.725287], [95.149425, 27.701239], [95.108165, 27.696601], [95.098155, 27.691352], [95.090831, 27.679267], [95.085541, 27.653428], [95.081147, 27.640448], [95.093435, 27.650906], [95.104096, 27.666775], [95.116954, 27.68122], [95.135753, 27.687567], [95.144135, 27.680487], [95.148367, 27.663764], [95.147065, 27.644395], [95.139415, 27.629584], [95.102468, 27.60989], [95.024913, 27.606757], [94.992442, 27.599433], [94.954845, 27.574652], [94.94394, 27.569403], [94.933116, 27.569648], [94.92335, 27.571641], [94.916596, 27.57156], [94.906342, 27.561876], [94.88087, 27.528591], [94.875662, 27.520046], [94.868175, 27.502997], [94.850678, 27.501044], [94.831391, 27.503485], [94.817556, 27.499538], [94.761811, 27.458319], [94.752208, 27.448594], [94.76946, 27.435004], [94.757823, 27.419257], [94.721446, 27.396796], [94.703136, 27.382432], [94.66684, 27.363796], [94.649832, 27.351833], [94.654796, 27.349148], [94.664806, 27.341498], [94.670095, 27.338731], [94.667003, 27.334825], [94.665538, 27.331407], [94.66448, 27.327989], [94.662852, 27.32449], [94.646495, 27.328152], [94.631847, 27.316107], [94.620616, 27.29621], [94.615001, 27.276679], [94.622813, 27.287462], [94.634532, 27.29918], [94.648448, 27.308417], [94.662852, 27.311469], [94.681407, 27.305691], [94.684255, 27.294949], [94.676687, 27.282009], [94.662852, 27.269884], [94.658376, 27.269599], [94.654307, 27.272406], [94.648367, 27.273057], [94.631847, 27.260606], [94.61964, 27.253607], [94.615001, 27.249376], [94.60849, 27.23725], [94.601329, 27.194159], [94.592865, 27.199815], [94.587901, 27.207587], [94.586355, 27.217353], [94.587576, 27.228868], [94.571056, 27.218085], [94.565359, 27.197048], [94.566498, 27.150092], [94.565684, 27.139838], [94.560313, 27.115587], [94.554779, 27.101386], [94.542003, 27.09988], [94.518891, 27.106024], [94.500906, 27.096869], [94.471446, 27.069525], [94.4546, 27.063788], [94.448416, 27.059394], [94.445404, 27.049018], [94.444347, 27.026882], [94.440684, 27.016669], [94.432221, 27.007758], [94.417003, 26.996161], [94.406261, 26.985134], [94.399832, 26.980536], [94.389171, 26.975653], [94.359386, 26.969916], [94.351492, 26.965155], [94.325287, 26.938788], [94.308116, 26.927598], [94.286632, 26.920437], [94.264578, 26.919013], [94.20753, 26.927273], [94.196869, 26.92418], [94.184255, 26.916571], [94.173757, 26.906602], [94.169444, 26.896552], [94.164643, 26.896674], [94.155284, 26.883246], [94.147716, 26.86872], [94.148936, 26.86579], [94.143565, 26.862372], [94.121593, 26.852159], [94.121186, 26.855414], [94.121593, 26.86579], [94.114757, 26.858344], [94.113292, 26.869452], [94.119395, 26.883246], [94.135183, 26.906806], [94.113455, 26.912421], [94.093435, 26.901923], [94.076427, 26.88703], [94.063487, 26.879462], [94.044363, 26.875841], [94.0088, 26.858466], [93.991222, 26.852159], [93.945567, 26.841579], [93.927013, 26.831651], [93.906505, 26.813992], [93.877533, 26.778673], [93.863373, 26.765937], [93.841075, 26.755927], [93.763764, 26.739529], [93.751557, 26.732042], [93.656668, 26.714952], [93.635916, 26.718085], [93.61671, 26.724799], [93.59905, 26.734239], [93.583588, 26.746039], [93.567963, 26.75198], [93.5053, 26.755927], [93.462576, 26.766954], [93.439952, 26.768093], [93.415701, 26.762152], [93.410818, 26.759589], [93.406668, 26.756049], [93.377452, 26.723456], [93.368337, 26.718451], [93.357595, 26.718451], [93.346202, 26.723009], [93.325776, 26.734931], [93.313243, 26.739773], [93.300222, 26.741767], [93.28712, 26.740912], [93.274343, 26.737128], [93.248057, 26.724433], [93.183116, 26.674018], [93.141612, 26.654568], [93.119151, 26.647488], [93.10434, 26.649766], [93.086681, 26.656195], [93.062511, 26.654608], [93.018565, 26.646064], [92.898448, 26.65351], [92.884207, 26.650987], [92.880626, 26.644477], [92.879975, 26.635443], [92.874522, 26.625596], [92.85377, 26.612006], [92.833751, 26.608344], [92.732595, 26.613593], [92.710704, 26.611355], [92.67628, 26.600206], [92.657156, 26.590847], [92.648692, 26.581244], [92.644542, 26.5692], [92.623139, 26.53323], [92.614513, 26.52322], [92.594737, 26.517524], [92.508067, 26.515733], [92.478933, 26.519477], [92.429698, 26.534695], [92.401541, 26.5362], [92.391205, 26.53323], [92.353282, 26.515733], [92.325125, 26.508165], [92.313894, 26.502712], [92.302013, 26.492133], [92.292735, 26.487576], [92.255056, 26.474799], [92.249522, 26.473944], [92.24464, 26.471544], [92.240652, 26.468044], [92.237071, 26.463568], [92.234386, 26.458319], [92.232432, 26.452704], [92.230968, 26.446885], [92.230235, 26.44123], [92.22462, 26.44123], [92.202647, 26.454617], [92.172781, 26.442939], [92.124441, 26.403388], [92.110362, 26.394843], [92.075776, 26.380154], [92.065847, 26.372382], [92.063406, 26.358751], [92.069265, 26.326117], [92.065847, 26.309638], [92.056895, 26.30329], [92.040701, 26.297146], [92.022472, 26.292304], [92.007823, 26.290391], [91.997081, 26.287055], [91.970795, 26.272081], [91.952891, 26.268663], [91.933523, 26.269558], [91.924734, 26.268012], [91.915701, 26.262885], [91.911876, 26.258979], [91.902599, 26.246161], [91.897553, 26.24197], [91.891205, 26.238796], [91.884369, 26.236599], [91.878022, 26.235378], [91.869884, 26.235867], [91.854096, 26.239691], [91.846121, 26.239325], [91.692393, 26.171942], [91.665294, 26.166449], [91.619395, 26.171332], [91.606944, 26.1706], [91.595144, 26.16706], [91.542084, 26.144843], [91.529063, 26.141059], [91.498139, 26.139757], [91.39088, 26.170437], [91.37558, 26.172146], [91.360444, 26.171576], [91.329845, 26.164008], [91.316417, 26.162177], [91.302826, 26.162665], [91.288178, 26.165595], [91.275076, 26.170478], [91.250418, 26.183214], [91.198253, 26.202826], [91.135509, 26.213568], [91.119721, 26.211859], [91.062104, 26.186835], [91.029552, 26.179999], [90.963796, 26.17414], [90.932872, 26.162543], [90.902843, 26.142646], [90.887462, 26.134955], [90.869151, 26.130886], [90.84962, 26.130439], [90.839692, 26.1317], [90.831065, 26.134711], [90.825125, 26.139024], [90.813975, 26.149197], [90.807384, 26.15351], [90.7942, 26.157986], [90.752452, 26.160183], [90.739513, 26.162787], [90.728282, 26.167548], [90.706391, 26.180121], [90.682058, 26.190009], [90.583018, 26.205146], [90.506847, 26.228705], [90.490001, 26.228868], [90.473888, 26.224555], [90.459972, 26.214871], [90.434255, 26.178249], [90.421479, 26.168402], [90.402924, 26.161444], [90.364513, 26.154568], [90.346121, 26.148301], [90.308442, 26.125067], [90.294037, 26.119737], [90.242442, 26.11282], [90.226329, 26.106472], [90.1963, 26.084499], [90.176768, 26.077216], [90.135753, 26.067654], [90.045421, 26.034044], [89.97519, 26.018988], [89.954194, 26.010688], [89.936615, 25.99433], [89.904063, 25.941962], [89.889659, 25.926459], [89.859386, 25.902167], [89.846446, 25.888739], [89.836436, 25.871405], [89.812999, 25.815741], [89.744884, 25.709499], [89.736827, 25.69184], [89.722585, 25.630927], [89.7046, 25.592963], [89.697765, 25.572943], [89.697032, 25.550727], [89.70696, 25.506212], [89.707612, 25.483344], [89.698416, 25.438788], [89.699229, 25.417344], [89.697276, 25.399278], [89.691417, 25.382025], [89.675385, 25.348944], [89.670909, 25.324327], [89.678315, 25.305243], [89.690929, 25.287177], [89.700776, 25.265733], [89.702647, 25.241767], [89.696707, 25.219916], [89.685069, 25.200141], [89.662527, 25.173367], [89.65797, 25.163845], [89.649994, 25.130683], [89.626231, 25.074774], [89.612722, 24.959825], [89.612722, 24.94835], [89.614268, 24.937079], [89.618093, 24.926215], [89.624278, 24.915839], [89.647472, 24.889838], [89.658132, 24.8699], [89.665294, 24.848334], [89.670665, 24.802924], [89.673595, 24.791531], [89.679291, 24.780707], [89.7046, 24.750556], [89.715831, 24.726426], [89.731537, 24.651719], [89.759858, 24.586982], [89.767996, 24.549587], [89.768972, 24.53087], [89.767345, 24.511176], [89.759288, 24.479844], [89.758311, 24.442572], [89.749034, 24.370551], [89.749034, 24.360785], [89.7553, 24.322455], [89.754649, 24.283271], [89.751475, 24.268256], [89.749034, 24.26081], [89.734793, 24.232733], [89.733165, 24.22366], [89.734874, 24.216498], [89.741222, 24.201199], [89.743175, 24.193183], [89.743337, 24.183783], [89.739675, 24.156684], [89.740326, 24.131293], [89.739675, 24.122992], [89.734793, 24.105984], [89.701671, 24.035509], [89.696788, 24.016059], [89.695811, 23.997016], [89.700287, 23.958116], [89.726085, 23.884467], [89.744395, 23.858669], [89.785655, 23.796739], [89.803722, 23.779812], [89.843272, 23.756049], [89.855072, 23.746609], [89.908621, 23.67414], [89.920095, 23.665229], [89.934011, 23.659776], [89.969005, 23.652167], [89.985037, 23.644355], [90.142589, 23.544501], [90.170339, 23.520453], [90.19337, 23.506903], [90.212901, 23.495469], [90.225352, 23.483018], [90.235281, 23.474392], [90.250092, 23.461982]], [[89.755463, 24.274441], [89.75644, 24.272895], [89.75823, 24.271511], [89.763927, 24.268012], [89.765717, 24.264268], [89.792572, 24.237576], [89.803722, 24.2296], [89.806651, 24.226589], [89.807628, 24.221218], [89.808116, 24.199327], [89.826101, 24.195136], [89.829845, 24.185981], [89.827891, 24.176825], [89.828868, 24.172634], [89.832286, 24.166124], [89.828298, 24.151801], [89.826427, 24.137559], [89.835704, 24.131049], [89.8838, 24.131049], [89.907156, 24.089464], [89.913259, 24.08747], [89.922781, 24.086778], [89.931244, 24.085069], [89.935069, 24.079861], [89.936453, 24.071804], [89.940033, 24.065741], [89.961436, 24.039618], [89.970307, 24.034857], [89.996349, 24.035468], [90.026296, 24.030707], [90.038503, 24.03087], [90.050955, 24.035468], [90.044932, 24.021796], [90.066417, 24.015082], [90.083507, 24.013048], [90.094737, 24.005968], [90.103282, 23.967719], [90.114675, 23.955919], [90.146658, 23.939276], [90.148936, 23.936713], [90.151296, 23.932644], [90.154714, 23.928412], [90.160248, 23.925605], [90.166108, 23.925889], [90.169037, 23.932644], [90.174571, 23.933051], [90.194591, 23.925971], [90.205007, 23.920844], [90.212169, 23.915635], [90.22698, 23.898017], [90.238292, 23.880398], [90.246023, 23.86046], [90.250418, 23.836249], [90.240896, 23.797431], [90.222992, 23.757188], [90.220225, 23.729356], [90.256602, 23.727607], [90.276541, 23.737413], [90.290701, 23.749701], [90.302664, 23.756659], [90.315115, 23.750556], [90.347179, 23.715766], [90.35963, 23.706488], [90.378022, 23.697821], [90.405284, 23.693793], [90.421641, 23.686062], [90.466889, 23.643866], [90.476329, 23.631415], [90.457042, 23.625515], [90.458018, 23.608507], [90.476329, 23.582953]]]}}, {"type": "Feature", "properties": {"dissolve": "948River", "scalerank": 8.0, "featurecla": "River", "name": "Luhit", "name_alt": null, "rivernum": 948, "note": null, "min_zoom": 7.0, "name_en": "Luhit", "min_label": 8.0}, "bbox": [95.459483, 27.766466, 97.083995, 28.527615], "geometry": {"type": "MultiLineString", "coordinates": [[[97.083995, 28.527615], [97.064708, 28.484565], [97.050548, 28.435004], [97.041108, 28.379503], [97.038097, 28.323188], [97.052013, 28.186347], [97.044363, 28.147406], [96.993663, 28.047675], [96.987722, 28.026964], [96.98463, 27.975287], [96.979503, 27.958848], [96.959402, 27.935818], [96.927989, 27.91413], [96.893321, 27.899197], [96.864024, 27.896267], [96.845795, 27.903998], [96.821869, 27.9289], [96.807384, 27.940009], [96.784434, 27.948676], [96.711192, 27.965644], [96.685802, 27.97956], [96.590831, 28.073065], [96.574229, 28.085313], [96.552257, 28.091905], [96.513682, 28.089301], [96.480398, 28.073839], [96.453054, 28.048407], [96.432872, 28.015815], [96.425873, 27.983507], [96.423839, 27.947333], [96.417247, 27.91474], [96.396658, 27.8935], [96.377208, 27.889919], [96.318614, 27.902167], [96.301199, 27.902411], [96.250987, 27.896023], [96.191173, 27.902859], [96.160492, 27.906033], [96.14503, 27.905951], [96.128998, 27.90412], [96.094656, 27.895616], [95.91269, 27.822048], [95.887625, 27.816677], [95.876964, 27.817694], [95.869395, 27.821072], [95.861339, 27.823106], [95.84962, 27.819932], [95.79599, 27.795356], [95.765229, 27.77029], [95.752371, 27.766466], [95.739268, 27.767524], [95.732921, 27.771918], [95.728038, 27.777655], [95.720144, 27.782782], [95.641124, 27.808702], [95.624278, 27.810126], [95.568614, 27.806952], [95.553315, 27.81212], [95.539236, 27.818874], [95.520274, 27.823432], [95.501394, 27.821112], [95.486746, 27.816352], [95.476654, 27.818142], [95.472179, 27.835273], [95.459483, 27.843858]]]}}]}